{"type": "FeatureCollection", "features": [ {"type": "Feature", "properties": {"norad_id": 66911, "name": "1998-067XX", "group": "stations", "lat": 10.877467619688755, "lon": -90.98037339258303, "alt_km": 406.92236717625656, "timestamp": "2025-12-21T16:47:53.483209+00:00", "meta": {"OBJECT_NAME": "1998-067XX", "OBJECT_ID": "1998-067XX", "EPOCH": "2025-12-21T06:49:15.408768", "MEAN_MOTION": 15.53123462, "ECCENTRICITY": 0.0003853, "INCLINATION": 51.6308, "RA_OF_ASC_NODE": 99.8474, "ARG_OF_PERICENTER": 259.7262, "MEAN_ANOMALY": 100.3293, "EPHEMERIS_TYPE": 0, "CLASSIFICATION_TYPE": "U", "NORAD_CAT_ID": 66911, "ELEMENT_SET_NO": 999, "REV_AT_EPOCH": 293, "BSTAR": 0.00094843, "MEAN_MOTION_DOT": 0.00060532, "MEAN_MOTION_DDOT": 0}, "tle": {"line1": "1 66911U 98067XX  25355.28420612  .00060532  00000+0  94843-3 0  9994", "line2": "2 66911  51.6308  99.8474 0003853 259.7262 100.3293 15.53123462  2935"}}, "geometry": {"type": "Point", "coordinates": [-90.98037339258303, 10.877467619688755]}}, {"type": "Feature", "properties": {"norad_id": 66912, "name": "1998-067XY", "group": "stations", "lat": 47.47051123266022, "lon": -141.84107852513597, "alt_km": 407.08915855632677, "timestamp": "2025-12-21T16:47:53.483219+00:00", "meta": {"OBJECT_NAME": "1998-067XY", "OBJECT_ID": "1998-067XY", "EPOCH": "2025-12-21T11:41:25.287072", "MEAN_MOTION": 15.51934859, "ECCENTRICITY": 0.0004003, "INCLINATION": 51.6317, "RA_OF_ASC_NODE": 98.9521, "ARG_OF_PERICENTER": 271.7448, "MEAN_ANOMALY": 88.3083, "EPHEMERIS_TYPE": 0, "CLASSIFICATION_TYPE": "U", "NORAD_CAT_ID": 66912, "ELEMENT_SET_NO": 999, "REV_AT_EPOCH": 296, "BSTAR": 0.00071547, "MEAN_MOTION_DOT": 0.0004353, "MEAN_MOTION_DDOT": 0}, "tle": {"line1": "1 66912U 98067XY  25355.48709823  .00043530  00000+0  71547-3 0  9996", "line2": "2 66912  51.6317  98.9521 0004003 271.7448  88.3083 15.51934859  2960"}}, "geometry": {"type": "Point", "coordinates": [-141.84107852513597, 47.47051123266022]}}]}